NORAD_CAT_ID,OBJECT_NAME,OBJECT_TYPE,EPOCH,MEAN_MOTION,ECCENTRICITY,INCLINATION,RA_OF_ASC_NODE,ARG_OF_PERICENTER,MEAN_ANOMALY,BSTAR,MEAN_MOTION_DOT,MEAN_MOTION_DDOT,TLE_LINE0,TLE_LINE1,TLE_LINE2,SEMIMAJOR_AXIS,PERIOD,APOGEE,PERIGEE,DECAYED
52559.0,STARLINK-3953,PAYLOAD,2023-05-11 02:51:51,15.08853122,0.0001326,53.2168,79.1797,83.59,276.5243,4.6344e-05,4.5e-06,0.0,0 STARLINK-3953,1 52559U 22051AC  23131.11934661  .00000450  00000-0  46344-4 0  9991,2 52559  53.2168  79.1797 0001326  83.5900 276.5243 15.08853122 55611,6917.84,95.437,540.623,538.788,0.0
52559.0,STARLINK-3953,PAYLOAD,2023-05-12 02:42:39,15.08837299,0.0001342,53.2172,74.7204,76.183,283.9312,3.2769e-05,2.34e-06,0.0,0 STARLINK-3953,1 52559U 22051AC  23132.11295881  .00000234  00000-0  32769-4 0  9992,2 52559  53.2172  74.7204 0001342  76.1830 283.9312 15.08837299 55760,6917.889,95.438,540.682,538.825,0.0
52559.0,STARLINK-3953,PAYLOAD,2023-05-12 23:22:39,15.08852325,9.61e-05,53.2162,70.8521,62.8572,297.2518,5.2903e-05,5.55e-06,0.0,0 STARLINK-3953,1 52559U 22051AC  23132.97406847  .00000555  00000-0  52903-4 0  9990,2 52559  53.2162  70.8521 0000961  62.8572 297.2518 15.08852325 55896,6917.843,95.437,540.373,539.043,0.0
52559.0,STARLINK-3953,PAYLOAD,2023-05-13 05:44:11,15.0886139,0.0001283,53.2166,69.6614,93.6206,266.4932,0.00039738,6.046e-05,0.0,0 STARLINK-3953,1 52559U 22051AC  23133.23902444  .00006046  00000-0  39738-3 0  9995,2 52559  53.2166  69.6614 0001283  93.6206 266.4932 15.08861390 55860,6917.815,95.436,540.568,538.792,0.0
52559.0,STARLINK-3953,PAYLOAD,2023-05-14 05:34:59,15.08846844,0.0001029,53.2165,65.2013,88.2895,271.8215,0.00028222,4.207e-05,0.0,0 STARLINK-3953,1 52559U 22051AC  23134.23263439  .00004207  00000-0  28222-3 0  9993,2 52559  53.2165  65.2013 0001029  88.2895 271.8215 15.08846844 56082,6917.859,95.437,540.436,539.013,0.0
52559.0,STARLINK-3953,PAYLOAD,2023-05-14 18:18:04,15.08840629,0.0001206,53.2173,62.8261,108.0112,252.1011,0.00043954,6.714e-05,0.0,0 STARLINK-3953,1 52559U 22051AC  23134.76255739  .00006714  00000-0  43954-3 0  9999,2 52559  53.2173  62.8261 0001206 108.0112 252.1011 15.08840629 56091,6917.878,95.438,540.578,538.909,0.0
52559.0,STARLINK-3953,PAYLOAD,2023-05-15 00:39:37,15.08840098,0.0001104,53.217,61.6351,102.1084,258.0032,0.00029291,4.377e-05,0.0,0 STARLINK-3953,1 52559U 22051AC  23135.02751796  .00004377  00000-0  29291-3 0  9994,2 52559  53.2170  61.6351 0001104 102.1084 258.0032 15.08840098 56206,6917.88,95.438,540.509,538.981,0.0
52559.0,STARLINK-3953,PAYLOAD,2023-05-15 11:47:19,15.08844186,0.0001109,53.2174,59.5547,106.2895,253.8219,0.0002756,4.102e-05,0.0,0 STARLINK-3953,1 52559U 22051AC  23135.49119657  .00004102  00000-0  27560-3 0  9992,2 52559  53.2174  59.5547 0001109 106.2895 253.8219 15.08844186 56205,6917.868,95.437,540.5,538.965,0.0
52559.0,STARLINK-3953,PAYLOAD,2023-05-16 02:05:47,15.08839763,0.0001081,53.218,56.8789,104.4909,255.6203,-9.2606e-06,-4.35e-06,0.0,0 STARLINK-3953,1 52559U 22051AC  23136.08735780 -.00000435  00000-0 -92606-5 0  9991,2 52559  53.2180  56.8789 0001081 104.4909 255.6203 15.08839763 56360,6917.881,95.438,540.494,538.998,0.0
52559.0,STARLINK-3953,PAYLOAD,2023-05-16 17:59:38,15.08844447,0.0001238,53.2183,53.9062,95.5664,264.5469,0.000121,1.639e-05,0.0,0 STARLINK-3953,1 52559U 22051AC  23136.74975664  .00001639  00000-0  12100-3 0  9995,2 52559  53.2183  53.9062 0001238  95.5664 264.5469 15.08844447 56398,6917.867,95.437,540.588,538.875,0.0
52559.0,STARLINK-3953,PAYLOAD,2023-05-17 03:31:57,15.08848044,0.000123,53.2181,52.1182,86.2124,273.9009,0.00016644,2.363e-05,0.0,0 STARLINK-3953,1 52559U 22051AC  23137.14719518  .00002363  00000-0  16644-3 0  9996,2 52559  53.2181  52.1182 0001230  86.2124 273.9009 15.08848044 56526,6917.856,95.437,540.572,538.87,0.0
52559.0,STARLINK-3953,PAYLOAD,2023-05-18 01:47:22,15.08840986,0.0001113,53.2169,47.9558,73.8896,286.2219,9.9846e-05,1.302e-05,0.0,0 STARLINK-3953,1 52559U 22051AC  23138.07456097  .00001302  00000-0  99846-4 0  9997,2 52559  53.2169  47.9558 0001113  73.8896 286.2219 15.08840986 56661,6917.877,95.437,540.512,538.972,0.0
52559.0,STARLINK-3953,PAYLOAD,2023-05-18 17:41:13,15.08842,0.0001076,53.217,44.9818,76.9754,283.1358,7.8833e-05,9.67e-06,0.0,0 STARLINK-3953,1 52559U 22051AC  23138.73696103  .00000967  00000-0  78833-4 0  9993,2 52559  53.2170  44.9818 0001076  76.9754 283.1358 15.08842000 56696,6917.874,95.437,540.484,538.995,0.0
52559.0,STARLINK-3953,PAYLOAD,2023-05-19 03:13:31,15.08850408,0.0001101,53.2172,43.1968,86.5206,273.5912,0.00018812,2.708e-05,0.0,0 STARLINK-3953,1 52559U 22051AC  23139.13439650  .00002708  00000-0  18812-3 0  9995,2 52559  53.2172  43.1968 0001101  86.5206 273.5912 15.08850408 56828,6917.849,95.437,540.475,538.952,0.0
52559.0,STARLINK-3953,PAYLOAD,2023-05-19 20:42:46,15.08836063,0.0001136,53.2174,39.9261,92.1607,267.9515,0.00039671,6.031e-05,0.0,0 STARLINK-3953,1 52559U 22051AC  23139.86304326  .00006031  00000-0  39671-3 0  9995,2 52559  53.2174  39.9261 0001136  92.1607 267.9515 15.08836063 56866,6917.892,95.438,540.543,538.972,0.0
52559.0,STARLINK-3953,PAYLOAD,2023-05-20 03:04:20,15.08823267,0.0001305,53.2172,38.7363,94.5321,265.5821,0.0011896,0.00018686,0.0,0 STARLINK-3953,1 52559U 22051AC  23140.12801383  .00018686  00000-0  11896-2 0  9998,2 52559  53.2172  38.7363 0001305  94.5321 265.5821 15.08823267 56979,6917.932,95.439,540.699,538.894,0.0
52559.0,STARLINK-3953,PAYLOAD,2023-05-20 20:33:33,15.08850553,0.0001245,53.217,35.4641,94.9212,265.1922,0.00012187,1.653e-05,0.0,0 STARLINK-3953,1 52559U 22051AC  23140.85663256  .00001653  00000-0  12187-3 0  9994,2 52559  53.2170  35.4641 0001245  94.9212 265.1922 15.08850553 57018,6917.848,95.437,540.574,538.852,0.0
52559.0,STARLINK-3953,PAYLOAD,2023-05-20 23:44:18,15.08856608,0.0001122,53.2168,34.8695,79.0734,281.0384,0.00020265,2.94e-05,0.0,0 STARLINK-3953,1 52559U 22051AC  23140.98910866  .00002940  00000-0  20265-3 0  9996,2 52559  53.2168  34.8695 0001122  79.0734 281.0384 15.08856608 57100,6917.83,95.437,540.471,538.918,0.0
52559.0,STARLINK-3953,PAYLOAD,2023-05-21 12:27:25,15.08829543,0.0001029,53.2175,32.4902,113.7778,246.3322,-0.00012165,-2.223e-05,0.0,0 STARLINK-3953,1 52559U 22051AC  23141.51904205 -.00002223  00000-0 -12165-3 0  9992,2 52559  53.2175  32.4902 0001029 113.7778 246.3322 15.08829543 57118,6917.912,95.438,540.489,539.065,0.0
52559.0,STARLINK-3953,PAYLOAD,2023-05-21 17:13:35,15.08817262,6.78e-05,53.2173,31.598,84.1276,275.9793,-0.00030146,-5.079e-05,0.0,0 STARLINK-3953,1 52559U 22051AC  23141.71777003 -.00005079  00000-0 -30146-3 0  9999,2 52559  53.2173  31.5980 0000678  84.1276 275.9793 15.08817262 57211,6917.95,95.439,540.284,539.346,0.0
52559.0,STARLINK-3953,PAYLOAD,2023-05-21 20:24:21,15.08818298,0.0001544,53.2168,31.0037,121.0923,239.0221,-0.00029999,-5.056e-05,0.0,0 STARLINK-3953,1 52559U 22051AC  23141.85024998 -.00005056  00000-0 -29999-3 0  9991,2 52559  53.2168  31.0037 0001544 121.0923 239.0221 15.08818298 57167,6917.947,95.439,540.88,538.744,0.0
52559.0,STARLINK-3953,PAYLOAD,2023-05-21 23:35:07,15.08824405,0.0001107,53.2171,30.4119,87.8078,272.3041,-0.00021302,-3.675e-05,0.0,0 STARLINK-3953,1 52559U 22051AC  23141.98272914 -.00003675  00000-0 -21302-3 0  9993,2 52559  53.2171  30.4119 0001107  87.8078 272.3041 15.08824405 57257,6917.928,95.439,540.559,539.027,0.0
52559.0,STARLINK-3953,PAYLOAD,2023-05-22 09:07:26,15.08832762,0.0001137,53.2173,28.6281,102.3855,257.7264,2.3248e-05,8.2e-07,0.0,0 STARLINK-3953,1 52559U 22051AC  23142.38016864  .00000082  00000-0  23248-4 0  9997,2 52559  53.2173  28.6281 0001137 102.3855 257.7264 15.08832762 57313,6917.903,95.438,540.554,538.981,0.0
52559.0,STARLINK-3953,PAYLOAD,2023-05-22 18:39:45,15.08841627,0.0001079,53.2172,26.8436,97.3494,262.7621,0.00024027,3.538e-05,0.0,0 STARLINK-3953,1 52559U 22051AC  23142.77760716  .00003538  00000-0  24027-3 0  9996,2 52559  53.2172  26.8436 0001079  97.3494 262.7621 15.08841627 57303,6917.875,95.437,540.487,538.994,0.0
52559.0,STARLINK-3953,PAYLOAD,2023-05-23 20:05:55,15.0884408,0.0001015,53.2171,22.0859,96.0444,264.0664,0.00037444,5.677e-05,0.0,0 STARLINK-3953,1 52559U 22051AC  23143.83745023  .00005677  00000-0  37444-3 0  9991,2 52559  53.2171  22.0859 0001015  96.0444 264.0664 15.08844080 57465,6917.868,95.437,540.435,539.031,0.0
52559.0,STARLINK-3953,PAYLOAD,2023-05-24 00:52:04,15.0885102,9.62e-05,53.2174,21.1929,89.6512,270.4591,0.00031326,4.703e-05,0.0,0 STARLINK-3953,1 52559U 22051AC  23144.03616698  .00004703  00000-0  31326-3 0  9991,2 52559  53.2174  21.1929 0000962  89.6512 270.4591 15.08851020 57563,6917.847,95.437,540.377,539.046,0.0
52559.0,STARLINK-3953,PAYLOAD,2023-05-25 21:22:52,15.08847086,0.0001028,53.2166,12.8674,109.3438,250.7666,0.00015105,2.117e-05,0.0,0 STARLINK-3953,1 52559U 22051AC  23145.89088492  .00002117  00000-0  15105-3 0  9995,2 52559  53.2166  12.8674 0001028 109.3438 250.7666 15.08847086 57773,6917.859,95.437,540.435,539.013,0.0
52559.0,STARLINK-3953,PAYLOAD,2023-05-26 21:13:40,15.0883789,9.51e-05,53.216,8.4091,94.0197,266.0904,1.755e-05,-8e-08,0.0,0 STARLINK-3953,1 52559U 22051AC  23146.88449154 -.00000008  00000-0  17550-4 0  9996,2 52559  53.2160   8.4091 0000951  94.0197 266.0904 15.08837890 57921,6917.887,95.438,540.41,539.094,0.0
52559.0,STARLINK-3953,PAYLOAD,2023-05-27 21:04:26,15.08844278,9.62e-05,53.2171,3.9479,82.7906,277.3196,0.00011761,1.585e-05,0.0,0 STARLINK-3953,1 52559U 22051AC  23147.87808702  .00001585  00000-0  11761-3 0  9991,2 52559  53.2171   3.9479 0000962  82.7906 277.3196 15.08844278 58070,6917.867,95.437,540.398,539.067,0.0
52559.0,STARLINK-3953,PAYLOAD,2023-05-28 20:55:13,15.08842798,0.0001,53.2173,359.4866,84.7514,275.3592,0.00012883,1.763e-05,0.0,0 STARLINK-3953,1 52559U 22051AC  23148.87168871  .00001763  00000-0  12883-3 0  9992,2 52559  53.2173 359.4866 0001000  84.7514 275.3592 15.08842798 58299,6917.872,95.437,540.429,539.045,0.0
